H1 CPF  1  DLR 2021 07 15 10  6962 technosat            
H2  1704205 6203    42829 2021 07 15 00 00 00 2021 07 22 00 00 00    60 1 1  0 0 0
H9
10 0 59411  64800.000000  0       4344269.719       2968948.218      -4600476.334
10 0 59411  64860.000000  0       4149260.933       2714895.067      -4926301.904
10 0 59411  64920.000000  0       3934671.305       2451304.132      -5231419.098
10 0 59411  64980.000000  0       3701326.987       2179448.495      -5514556.520
10 0 59411  65040.000000  0       3450142.111       1900626.611      -5774535.576
10 0 59411  65100.000000  0       3182115.064       1616156.170      -6010275.027
10 0 59411  65160.000000  0       2898324.398       1327367.941      -6220795.106
10 0 59411  65220.000000  0       2599924.430       1035599.658      -6405221.196
10 0 59411  65280.000000  0       2288140.543        742189.973      -6562787.094
10 0 59411  65340.000000  0       1964264.218        448472.499      -6692837.829
10 0 59411  65400.000000  0       1629647.866        155769.953      -6794832.160
10 0 59411  65460.000000  0       1285699.285       -134611.646      -6868344.730
10 0 59411  65520.000000  0        933875.786       -421388.674      -6913067.649
10 0 59411  65580.000000  0        575678.200       -703305.380      -6928811.572
10 0 59411  65640.000000  0        212644.713       -979139.189      -6915506.428
10 0 59411  65700.000000  0       -153655.474      -1247705.808      -6873201.737
10 0 59411  65760.000000  0       -521628.663      -1507864.134      -6802066.571
10 0 59411  65820.000000  0       -889663.397      -1758520.993      -6702389.085
10 0 59411  65880.000000  0      -1256137.309      -1998635.673      -6574575.566
10 0 59411  65940.000000  0      -1619424.080      -2227224.220      -6419149.019
10 0 59411  66000.000000  0      -1977900.439      -2443363.409      -6236747.313
10 0 59411  66060.000000  0      -2329953.236      -2646194.472      -6028120.960
10 0 59411  66120.000000  0      -2673986.563      -2834926.566      -5794130.468
10 0 59411  66180.000000  0      -3008428.946      -3008839.975      -5535743.288
10 0 59411  66240.000000  0      -3331740.585      -3167289.026      -5254030.261
10 0 59411  66300.000000  0      -3642420.511      -3309704.654      -4950161.544
10 0 59411  66360.000000  0      -3939013.640      -3435596.583      -4625402.121
10 0 59411  66420.000000  0      -4220117.709      -3544555.167      -4281106.930
10 0 59411  66480.000000  0      -4484390.100      -3636252.878      -3918715.553
10 0 59411  66540.000000  0      -4730554.487      -3710445.415      -3539746.493
10 0 59411  66600.000000  0      -4957407.260      -3766972.421      -3145791.031
10 0 59411  66660.000000  0      -5163823.691      -3805757.802      -2738506.710
10 0 59411  66720.000000  0      -5348763.801      -3826809.632      -2319610.437
10 0 59411  66780.000000  0      -5511277.852      -3830219.611      -1890871.267
10 0 59411  66840.000000  0      -5650511.477      -3816162.141      -1454102.935
10 0 59411  66900.000000  0      -5765710.437      -3784893.001      -1011156.065
10 0 59411  66960.000000  0      -5856224.871      -3736747.569       -563910.166
10 0 59411  67020.000000  0      -5921513.100      -3672138.657       -114265.479
10 0 59411  67080.000000  0      -5961144.953      -3591553.988        335865.363
10 0 59411  67140.000000  0      -5974804.538      -3495553.266        784565.825
10 0 59411  67200.000000  0      -5962292.388      -3384764.849       1229924.018
10 0 59411  67260.000000  0      -5923527.024      -3259882.064       1670041.208
10 0 59411  67320.000000  0      -5858545.910      -3121659.174       2103040.263
10 0 59411  67380.000000  0      -5767505.832      -2970907.077       2527073.944
10 0 59411  67440.000000  0      -5650682.729      -2808488.789       2940333.064
10 0 59411  67500.000000  0      -5508470.928      -2635314.689       3341054.562
10 0 59411  67560.000000  0      -5341381.727      -2452337.472       3727529.352
10 0 59411  67620.000000  0      -5150041.365      -2260546.889       4098109.824
10 0 59411  67680.000000  0      -4935188.443      -2060964.389       4451216.994
10 0 59411  67740.000000  0      -4697670.813      -1854637.686       4785347.295
10 0 59411  67800.000000  0      -4438442.001      -1642635.257       5099078.996
10 0 59411  67860.000000  0      -4158557.136      -1426040.815       5391078.265
10 0 59411  67920.000000  0      -3859168.427      -1205947.759       5660104.862
10 0 59411  67980.000000  0      -3541520.125       -983453.580       5905017.414
10 0 59411  68040.000000  0      -3206943.064       -759654.332       6124778.183
10 0 59411  68100.000000  0      -2856848.759       -535639.162       6318457.378
10 0 59411  68160.000000  0      -2492723.144       -312484.952       6485236.882
10 0 59411  68220.000000  0      -2116120.019        -91251.157       6624413.484
10 0 59411  68280.000000  0      -1728654.235        127025.186       6735401.650
10 0 59411  68340.000000  0      -1331994.637        341334.305       6817735.840
10 0 59411  68400.000000  0       -927856.751        550698.385       6871072.308
10 0 59411  68460.000000  0       -517995.266        754176.021       6895190.409
10 0 59411  68520.000000  0       -104196.332        950866.465       6889993.382
10 0 59411  68580.000000  0        311730.261       1139913.608       6855508.669
10 0 59411  68640.000000  0        727959.081       1320509.747       6791887.744
10 0 59411  68700.000000  0       1142657.130       1491899.063       6699405.366
10 0 59411  68760.000000  0       1553991.947       1653380.770       6578458.360
10 0 59411  68820.000000  0       1960139.745       1804311.969       6429563.924
10 0 59411  68880.000000  0       2359293.514       1944110.206       6253357.480
10 0 59411  68940.000000  0       2749671.152       2072255.731       6050590.086
10 0 59411  69000.000000  0       3129523.576       2188293.433       5822125.290
10 0 59411  69060.000000  0       3497142.659       2291834.407       5568935.487
10 0 59411  69120.000000  0       3850869.001       2382557.215       5292097.836
10 0 59411  69180.000000  0       4189099.504       2460208.811       4992789.762
10 0 59411  69240.000000  0       4510294.778       2524605.142       4672284.069
10 0 59411  69300.000000  0       4812986.326       2575631.392       4331943.600
10 0 59411  69360.000000  0       5095783.559       2613241.858       3973215.564
10 0 59411  69420.000000  0       5357380.601       2637459.489       3597625.167
10 0 59411  69480.000000  0       5596562.208       2648374.913       3206768.844
10 0 59411  69540.000000  0       5812209.468       2646145.270       2802307.660
10 0 59411  69600.000000  0       6003305.321       2630992.760       2385960.152
10 0 59411  69660.000000  0       6168939.499       2603202.782       1959494.856
10 0 59411  69720.000000  0       6308312.956       2563121.735       1524722.603
10 0 59411  69780.000000  0       6420741.791       2511154.528       1083488.635
10 0 59411  69840.000000  0       6505660.588       2447761.789        637664.541
10 0 59411  69900.000000  0       6562625.178       2373456.817        189140.096
10 0 59411  69960.000000  0       6591314.820       2288802.262       -260185.017
10 0 59411  70020.000000  0       6591533.673       2194406.533       -708409.460
10 0 59411  70080.000000  0       6563211.743       2090920.040      -1153638.329
10 0 59411  70140.000000  0       6506405.408       1979031.284      -1593991.219
10 0 59411  70200.000000  0       6421297.327       1859462.771      -2027610.346
10 0 59411  70260.000000  0       6308195.633       1732966.747      -2452668.564
10 0 59411  70320.000000  0       6167532.474       1600320.809      -2867377.074
10 0 59411  70380.000000  0       5999862.082       1462323.457      -3269992.915
10 0 59411  70440.000000  0       5805858.270       1319789.580      -3658826.254
10 0 59411  70500.000000  0       5586311.335       1173545.920      -4032247.372
10 0 59411  70560.000000  0       5342124.452       1024426.547      -4388693.316
10 0 59411  70620.000000  0       5074309.600        873268.373      -4726674.166
10 0 59411  70680.000000  0       4783983.104        720906.704      -5044778.960
10 0 59411  70740.000000  0       4472360.731        568170.870      -5341681.283
10 0 59411  70800.000000  0       4140752.373        415879.944      -5616144.445
10 0 59411  70860.000000  0       3790556.403        264838.598      -5867026.278
10 0 59411  70920.000000  0       3423253.643        115833.080      -6093283.594
10 0 59411  70980.000000  0       3040400.970        -30372.668      -6293976.143
10 0 59411  71040.000000  0       2643624.710       -173040.739      -6468270.109
10 0 59411  71100.000000  0       2234613.809       -311462.796      -6615441.220
10 0 59411  71160.000000  0       1815112.800       -444963.405      -6734877.458
10 0 59411  71220.000000  0       1386914.547       -572903.202      -6826081.431
10 0 59411  71280.000000  0        951852.692       -694681.838      -6888672.274
10 0 59411  71340.000000  0        511793.982       -809740.642      -6922387.024
10 0 59411  71400.000000  0         68630.540       -917565.085      -6927081.588
10 0 59411  71460.000000  0       -375727.944      -1017687.009      -6902731.342
10 0 59411  71520.000000  0       -819362.167      -1109686.613      -6849431.377
10 0 59411  71580.000000  0      -1260351.286      -1193194.193      -6767396.242
10 0 59411  71640.000000  0      -1696780.983      -1267891.608      -6656959.256
10 0 59411  71700.000000  0      -2126751.595      -1333513.503      -6518571.350
10 0 59411  71760.000000  0      -2548386.114      -1389848.226      -6352799.430
10 0 59411  71820.000000  0      -2959838.141      -1436738.507      -6160324.455
10 0 59411  71880.000000  0      -3359299.879      -1474081.881      -5941939.125
10 0 59411  71940.000000  0      -3745010.113      -1501830.848      -5698545.070
99
